CCSDS_OMM_VERS = 2.0
CREATION_DATE  = 
ORIGINATOR     = 

OBJECT_NAME    = STARLINK-36043
OBJECT_ID      = 2025-283Z
CENTER_NAME    = EARTH
REF_FRAME      = TEME
TIME_SYSTEM    = UTC
MEAN_ELEMENT_THEORY = SGP/SGP4

EPOCH          = 2026-01-01T07:31:48.755136
MEAN_MOTION    = 15.49334085
ECCENTRICITY   = .0002713
INCLINATION    = 53.1607
RA_OF_ASC_NODE = 337.4679
ARG_OF_PERICENTER = 38.0160
MEAN_ANOMALY   = 322.1040

EPHEMERIS_TYPE = 0
CLASSIFICATION_TYPE = U
NORAD_CAT_ID   = 66901
ELEMENT_SET_NO = 999
REV_AT_EPOCH   = 552
BSTAR          = .15303E-2
MEAN_MOTION_DOT = .85681E-3
MEAN_MOTION_DDOT = 0

CCSDS_OMM_VERS = 2.0
CREATION_DATE  = 
ORIGINATOR     = 

OBJECT_NAME    = STARLINK-35983
OBJECT_ID      = 2025-283AA
CENTER_NAME    = EARTH
REF_FRAME      = TEME
TIME_SYSTEM    = UTC
MEAN_ELEMENT_THEORY = SGP/SGP4

EPOCH          = 2026-01-01T10:37:12.389664
MEAN_MOTION    = 15.48912230
ECCENTRICITY   = .000183
INCLINATION    = 53.1603
RA_OF_ASC_NODE = 336.8480
ARG_OF_PERICENTER = 103.1760
MEAN_ANOMALY   = 256.9453

EPHEMERIS_TYPE = 0
CLASSIFICATION_TYPE = U
NORAD_CAT_ID   = 66902
ELEMENT_SET_NO = 999
REV_AT_EPOCH   = 554
BSTAR          = -.15149E-2
MEAN_MOTION_DOT = -.82664E-3
MEAN_MOTION_DDOT = 0

CCSDS_OMM_VERS = 2.0
CREATION_DATE  = 
ORIGINATOR     = 

OBJECT_NAME    = STARLINK-36077
OBJECT_ID      = 2025-283AB
CENTER_NAME    = EARTH
REF_FRAME      = TEME
TIME_SYSTEM    = UTC
MEAN_ELEMENT_THEORY = SGP/SGP4

EPOCH          = 2026-01-01T16:00:00.999936
MEAN_MOTION    = 15.49404719
ECCENTRICITY   = .00012249
INCLINATION    = 53.1590
RA_OF_ASC_NODE = 335.7713
ARG_OF_PERICENTER = 98.9887
MEAN_ANOMALY   = 74.5744

EPHEMERIS_TYPE = 0
CLASSIFICATION_TYPE = U
NORAD_CAT_ID   = 66903
ELEMENT_SET_NO = 999
REV_AT_EPOCH   = 563
BSTAR          = .1868857E-2
MEAN_MOTION_DOT = .105256E-2
MEAN_MOTION_DDOT = 0

CCSDS_OMM_VERS = 2.0
CREATION_DATE  = 
ORIGINATOR     = 

OBJECT_NAME    = STARLINK-36059
OBJECT_ID      = 2025-283AC
CENTER_NAME    = EARTH
REF_FRAME      = TEME
TIME_SYSTEM    = UTC
MEAN_ELEMENT_THEORY = SGP/SGP4

EPOCH          = 2026-01-01T21:26:20.734656
MEAN_MOTION    = 15.49378334
ECCENTRICITY   = .00009233
INCLINATION    = 53.1607
RA_OF_ASC_NODE = 334.6837
ARG_OF_PERICENTER = 113.4565
MEAN_ANOMALY   = 246.6541

EPHEMERIS_TYPE = 0
CLASSIFICATION_TYPE = U
NORAD_CAT_ID   = 66904
ELEMENT_SET_NO = 999
REV_AT_EPOCH   = 561
BSTAR          = .25095464E-2
MEAN_MOTION_DOT = .142034E-2
MEAN_MOTION_DDOT = 0

CCSDS_OMM_VERS = 2.0
CREATION_DATE  = 
ORIGINATOR     = 

OBJECT_NAME    = STARLINK-36075
OBJECT_ID      = 2025-283AD
CENTER_NAME    = EARTH
REF_FRAME      = TEME
TIME_SYSTEM    = UTC
MEAN_ELEMENT_THEORY = SGP/SGP4

EPOCH          = 2026-01-01T22:00:01.999584
MEAN_MOTION    = 15.35841950
ECCENTRICITY   = .00010973
INCLINATION    = 53.1598
RA_OF_ASC_NODE = 334.7106
ARG_OF_PERICENTER = 109.9589
MEAN_ANOMALY   = 310.3875

EPHEMERIS_TYPE = 0
CLASSIFICATION_TYPE = U
NORAD_CAT_ID   = 66905
ELEMENT_SET_NO = 999
REV_AT_EPOCH   = 567
BSTAR          = -.63647671E-1
MEAN_MOTION_DOT = -.2002663E-1
MEAN_MOTION_DDOT = 0

CCSDS_OMM_VERS = 2.0
CREATION_DATE  = 
ORIGINATOR     = 

OBJECT_NAME    = 1998-067XS
OBJECT_ID      = 1998-067XS
CENTER_NAME    = EARTH
REF_FRAME      = TEME
TIME_SYSTEM    = UTC
MEAN_ELEMENT_THEORY = SGP/SGP4

EPOCH          = 2026-01-01T13:44:51.902016
MEAN_MOTION    = 15.51757321
ECCENTRICITY   = .0002498
INCLINATION    = 51.6323
RA_OF_ASC_NODE = 43.9794
ARG_OF_PERICENTER = 307.6709
MEAN_ANOMALY   = 52.4054

EPHEMERIS_TYPE = 0
CLASSIFICATION_TYPE = U
NORAD_CAT_ID   = 66906
ELEMENT_SET_NO = 999
REV_AT_EPOCH   = 469
BSTAR          = .66629E-3
MEAN_MOTION_DOT = .40223E-3
MEAN_MOTION_DDOT = 0

CCSDS_OMM_VERS = 2.0
CREATION_DATE  = 
ORIGINATOR     = 

OBJECT_NAME    = 1998-067XT
OBJECT_ID      = 1998-067XT
CENTER_NAME    = EARTH
REF_FRAME      = TEME
TIME_SYSTEM    = UTC
MEAN_ELEMENT_THEORY = SGP/SGP4

EPOCH          = 2026-01-01T11:38:51.689472
MEAN_MOTION    = 15.54256300
ECCENTRICITY   = .0003846
INCLINATION    = 51.6313
RA_OF_ASC_NODE = 44.1454
ARG_OF_PERICENTER = 349.6715
MEAN_ANOMALY   = 10.4196

EPHEMERIS_TYPE = 0
CLASSIFICATION_TYPE = U
NORAD_CAT_ID   = 66907
ELEMENT_SET_NO = 999
REV_AT_EPOCH   = 468
BSTAR          = .13893E-2
MEAN_MOTION_DOT = .9302E-3
MEAN_MOTION_DDOT = 0

CCSDS_OMM_VERS = 2.0
CREATION_DATE  = 
ORIGINATOR     = 

OBJECT_NAME    = 1998-067XU
OBJECT_ID      = 1998-067XU
CENTER_NAME    = EARTH
REF_FRAME      = TEME
TIME_SYSTEM    = UTC
MEAN_ELEMENT_THEORY = SGP/SGP4

EPOCH          = 2026-01-01T06:59:29.130432
MEAN_MOTION    = 15.54176560
ECCENTRICITY   = .0003949
INCLINATION    = 51.6307
RA_OF_ASC_NODE = 45.0994
ARG_OF_PERICENTER = 344.5705
MEAN_ANOMALY   = 15.5165

EPHEMERIS_TYPE = 0
CLASSIFICATION_TYPE = U
NORAD_CAT_ID   = 66908
ELEMENT_SET_NO = 999
REV_AT_EPOCH   = 465
BSTAR          = .133E-2
MEAN_MOTION_DOT = .88726E-3
MEAN_MOTION_DDOT = 0

CCSDS_OMM_VERS = 2.0
CREATION_DATE  = 
ORIGINATOR     = 

OBJECT_NAME    = SILVERSAT
OBJECT_ID      = 1998-067XV
CENTER_NAME    = EARTH
REF_FRAME      = TEME
TIME_SYSTEM    = UTC
MEAN_ELEMENT_THEORY = SGP/SGP4

EPOCH          = 2026-01-01T11:32:22.765920
MEAN_MOTION    = 15.54707895
ECCENTRICITY   = .0003986
INCLINATION    = 51.6306
RA_OF_ASC_NODE = 44.1149
ARG_OF_PERICENTER = 352.8495
MEAN_ANOMALY   = 7.2438

EPHEMERIS_TYPE = 0
CLASSIFICATION_TYPE = U
NORAD_CAT_ID   = 66909
ELEMENT_SET_NO = 999
REV_AT_EPOCH   = 468
BSTAR          = .15071E-2
MEAN_MOTION_DOT = .102768E-2
MEAN_MOTION_DDOT = 0

CCSDS_OMM_VERS = 2.0
CREATION_DATE  = 
ORIGINATOR     = 

OBJECT_NAME    = 1998-067XW
OBJECT_ID      = 1998-067XW
CENTER_NAME    = EARTH
REF_FRAME      = TEME
TIME_SYSTEM    = UTC
MEAN_ELEMENT_THEORY = SGP/SGP4

EPOCH          = 2026-01-01T13:03:30.863808
MEAN_MOTION    = 15.54525863
ECCENTRICITY   = .0003274
INCLINATION    = 51.6307
RA_OF_ASC_NODE = 43.7876
ARG_OF_PERICENTER = 324.6151
MEAN_ANOMALY   = 35.4622

EPHEMERIS_TYPE = 0
CLASSIFICATION_TYPE = U
NORAD_CAT_ID   = 66910
ELEMENT_SET_NO = 999
REV_AT_EPOCH   = 469
BSTAR          = .16086E-2
MEAN_MOTION_DOT = .10907E-2
MEAN_MOTION_DDOT = 0

CCSDS_OMM_VERS = 2.0
CREATION_DATE  = 
ORIGINATOR     = 

OBJECT_NAME    = 1998-067XX
OBJECT_ID      = 1998-067XX
CENTER_NAME    = EARTH
REF_FRAME      = TEME
TIME_SYSTEM    = UTC
MEAN_ELEMENT_THEORY = SGP/SGP4

EPOCH          = 2026-01-01T09:48:30.269088
MEAN_MOTION    = 15.55275272
ECCENTRICITY   = .0003115
INCLINATION    = 51.6313
RA_OF_ASC_NODE = 44.3841
ARG_OF_PERICENTER = 337.3069
MEAN_ANOMALY   = 22.7784

EPHEMERIS_TYPE = 0
CLASSIFICATION_TYPE = U
NORAD_CAT_ID   = 66911
ELEMENT_SET_NO = 999
REV_AT_EPOCH   = 466
BSTAR          = .16421E-2
MEAN_MOTION_DOT = .114538E-2
MEAN_MOTION_DDOT = 0

CCSDS_OMM_VERS = 2.0
CREATION_DATE  = 
ORIGINATOR     = 

OBJECT_NAME    = 1998-067XY
OBJECT_ID      = 1998-067XY
CENTER_NAME    = EARTH
REF_FRAME      = TEME
TIME_SYSTEM    = UTC
MEAN_ELEMENT_THEORY = SGP/SGP4

EPOCH          = 2026-01-01T11:50:57.320736
MEAN_MOTION    = 15.53331464
ECCENTRICITY   = .0003721
INCLINATION    = 51.6322
RA_OF_ASC_NODE = 44.2017
ARG_OF_PERICENTER = 337.2951
MEAN_ANOMALY   = 22.7874

EPHEMERIS_TYPE = 0
CLASSIFICATION_TYPE = U
NORAD_CAT_ID   = 66912
ELEMENT_SET_NO = 999
REV_AT_EPOCH   = 467
BSTAR          = .11042E-2
MEAN_MOTION_DOT = .71184E-3
MEAN_MOTION_DDOT = 0

